KUIPER-00165            
1 65778U 25217S   25362.00002315 -.00550995  00000+0 -44492-1 0  9997
2 65778  51.9010 354.0651 0006048  87.9488 246.4295 15.01885990  4368
KUIPER-00166            
1 65779U 25217T   25361.71270663  .00046208  00000+0  12201-2 0  9997
2 65779  51.8713 351.5920 0004658  53.9263 306.2155 15.37985952 14356
KUIPER-00167            
1 65780U 25217U   25362.00002315 -.00003041  00000+0 -37483-3 0  9999
2 65780  51.8975   2.5118 0004098 110.8339 308.3642 14.79391425  2313
KUIPER-00168            
1 65781U 25217V   25362.00002315 -.01750803  00000+0 -69765-1 0  9992
2 65781  51.8787 350.3385 0002200 118.2356 341.0467 15.28151305  1706
KUIPER-00169            
1 65782U 25217W   25362.00002315 -.01340934  00000+0 -87802-1 0  9995
2 65782  51.8872 352.3545 0005112  83.5462 126.7489 15.10271554  5705
KUIPER-00170            
1 65783U 25217X   25362.00002315 -.00982550  00000+0 -90914-1 0  9999
2 65783  51.8948 355.9036 0007814  62.7827 202.1003 14.96919141  4400
KUIPER-00171            
1 65784U 25217Y   25361.17287849  .00245164  00000+0  17512-2 0  9999
2 65784  51.8554 342.7748 0010856  70.1062 290.1108 15.72413153 14425
KUIPER-00172            
1 65785U 25217Z   25362.00002315  .00023993  00000+0  11166-2 0  9999
2 65785  51.8805 351.2670 0005526  77.1669 234.8631 15.19801303  2143
KUIPER-00173            
1 65786U 25217AA  25362.00002315 -.00200752  00000+0 -12927-1 0  9997
2 65786  51.8863 352.5414 0001064  70.6435 309.5381 15.08887435  2511
KUIPER-00174            
1 65787U 25217AB  25362.00002315  .00035234  00000+0  14402-2 0  9998
2 65787  51.8784 350.5107 0001220  83.0456 250.6522 15.24033565  5898
KUIPER-00176            
1 65788U 25217AC  25362.00002315 -.00000308  00000+0 -10119-4 0  9998
2 65788  51.9010   0.1706 0000945 103.0224  46.3448 14.82481055  2410
KUIPER-00101            
1 65947U 25228A   25362.00002315 -.00036291  00000+0 -46646-2 0  9999
2 65947  51.8984 317.6099 0000351 183.3248 287.0628 14.80753972  5319
KUIPER-00113            
1 65948U 25228B   25362.00002315 -.00244180  00000+0 -25461-1 0  9999
2 65948  51.9205 313.0922 0006348  82.7765 316.0092 14.90726587  5827
KUIPER-00117            
1 65949U 25228C   25362.00002315 -.00248691  00000+0 -30890-1 0  9993
2 65949  51.9000 315.2301 0008265  79.8757 324.7512 14.83649138  3249
KUIPER-00121            
1 65950U 25228D   25362.00002315 -.01113399  00000+0 -96811-1 0  9997
2 65950  51.8910 310.6339 0005011  99.8758 222.9767 14.99701304  1991
KUIPER-00122            
1 65951U 25228E   25361.60454073  .00041047  00000+0  54021-2 0  9990
2 65951  51.9002 321.8418 0000596 105.4345 254.6683 14.79763578 12525
KUIPER-00123            
1 65952U 25228F   25361.90834922  .00006826  00000+0  92338-3 0  9999
2 65952  51.9006 320.5183 0001824 120.7221 239.3921 14.79938381 12568
KUIPER-00124            
1 65953U 25228G   25361.91671296 -.00012103  00000+0 -14395-2 0  9997
2 65953  51.8989 313.0504 0001300  86.4518 233.8081 14.83299162  5759
KUIPER-00125            
1 65954U 25228H   25361.14497005  .00043082  00000+0  11675-2 0  9993
2 65954  51.8805 310.8544 0006746  75.8568 284.3168 15.37204079 12637
KUIPER-00126            
1 65955U 25228J   25361.91671296 -.00012966  00000+0 -16474-2 0  9996
2 65955  51.8997 317.9967 0002003  92.8115 114.3486 14.80624509  3317
KUIPER-00127            
1 65956U 25228K   25361.91671296  .00005546  00000+0  48797-3 0  9995
2 65956  51.8960 314.6829 0006069 111.6388 109.5823 14.97849825  4429
KUIPER-00128            
1 65957U 25228L   25361.91671296 -.01008064  00000+0 -96485-1 0  9992
2 65957  51.8994 311.2989 0003601 100.4240 220.9750 14.95720244  4203
KUIPER-00129            
1 65958U 25228M   25361.91671296 -.00780034  00000+0 -44882-1 0  9990
2 65958  51.8875 308.4394 0002530  57.1323 351.3206 15.14736003  5174
KUIPER-00130            
1 65959U 25228N   25361.91671296 -.01019763  00000+0 -75041-1 0  9997
2 65959  51.9014 309.6496 0006189  91.8418  84.6619 15.05684731  5401
KUIPER-00134            
1 65960U 25228P   25361.16762614  .00044392  00000+0  12483-2 0  9996
2 65960  51.8788 310.9974 0007600  67.6037 292.5754 15.36035222 12635
KUIPER-00135            
1 65961U 25228Q   25361.91671296 -.01603279  00000+0 -11707+0 0  9998
2 65961  51.8931 309.9769 0006270  87.3769 204.9880 15.06343917  5830
KUIPER-00136            
1 65962U 25228R   25361.91671296 -.01172341  00000+0 -72477-1 0  9993
2 65962  51.8868 308.4754 0006839  88.6943 229.2508 15.12395440  2375
KUIPER-00137            
1 65963U 25228S   25361.91671296 -.01138389  00000+0 -47514-1 0  9992
2 65963  51.8840 307.7065 0006309  87.6650 312.5396 15.26247821  2891
KUIPER-00138            
1 65964U 25228T   25361.91671296 -.00967292  00000+0 -31942-1 0  9993
2 65964  51.8793 307.4305 0008078  83.2071  82.5202 15.33739725  4346
KUIPER-00140            
1 65965U 25228U   25361.91671296 -.00543339  00000+0 -24504-1 0  9992
2 65965  51.8832 308.0121 0007536  71.5089 143.2605 15.22593326  5796
KUIPER-00141            
1 65966U 25228V   25361.14470038  .00067897  00000+0  18293-2 0  9996
2 65966  51.8805 310.8548 0005693  83.8212 276.3423 15.37187061 12635
KUIPER-00146            
1 65967U 25228W   25361.91671296  .00035035  00000+0  11931-2 0  9992
2 65967  51.8804 307.4100 0007532  81.2197  85.4393 15.30049737  4365
KUIPER-00149            
1 65968U 25228X   25361.14751574  .00044276  00000+0  12288-2 0  9999
2 65968  51.8808 310.8756 0006042  73.2704 286.8945 15.36456096 12630
KUIPER-00154            
1 65969U 25228Y   25361.02219929  .00061852  00000+0  17106-2 0  9993
2 65969  51.8791 311.5318 0006567  61.5603 298.6045 15.36410795 12610
KUIPER-00157            
1 65970U 25228Z   25361.55462077  .00061105  00000+0  16755-2 0  9997
2 65970  51.8798 309.1074 0007587  83.2918 276.8932 15.36677920 12690
KUIPER-00144            
1 67133U 25301A   25361.93608070  .00036324  00000+0  10408-2 0  9993
2 67133  51.8711  51.8529 0006306 126.1116 234.0454 15.35548060  2706
KUIPER-00164            
1 67134U 25301B   25361.54027265  .00032559  00000+0  91528-3 0  9991
2 67134  51.8731  53.7018 0003113 104.5119 255.6213 15.36211828  2824
KUIPER-00175            
1 67135U 25301C   25361.86189038  .00053136  00000+0  14615-2 0  9999
2 67135  51.8745  52.1013 0002440  58.8341 301.2884 15.36667260  2768
KUIPER-00179            
1 67136U 25301D   25361.53894390  .00047452  00000+0  13220-2 0  9993
2 67136  51.8742  53.6887 0003010  90.6035 269.5297 15.36316583  2829
KUIPER-00181            
1 67137U 25301E   25361.94388942  .00011445  00000+0  34795-3 0  9994
2 67137  51.8650  51.9042 0009781 148.7621 211.3947 15.34469817  2867
KUIPER-00183            
1 67138U 25301F   25361.88128083  .00034361  00000+0  10276-2 0  9995
2 67138  51.8623  52.2319 0011233 153.3664 206.7900 15.34188199  2861
KUIPER-00184            
1 67139U 25301G   25361.94314465  .00025107  00000+0  74966-3 0  9999
2 67139  51.8638  51.8981 0009077 149.1012 211.0509 15.34424968  2985
KUIPER-00186            
1 67140U 25301H   25361.93915676  .00026836  00000+0  78328-3 0  9997
2 67140  51.8693  51.8733 0007602 135.8412 224.3182 15.35115054  2709
KUIPER-00187            
1 67141U 25301J   25361.93306123  .00043326  00000+0  12236-2 0  9997
2 67141  51.8719  51.8334 0004419 118.3676 241.7757 15.35926758  2709
KUIPER-00188            
1 67142U 25301K   25361.93988959  .00027100  00000+0  79325-3 0  9996
2 67142  51.8704  51.8779 0007358 140.5367 219.6156 15.35021986  2702
KUIPER-00191            
1 67143U 25301L   25361.93811772  .00036564  00000+0  10572-2 0  9997
2 67143  51.8681  51.8668 0006695 137.2320 222.9188 15.35259595  2733
KUIPER-00196            
1 67144U 25301M   25361.80127758  .00025057  00000+0  71120-3 0  9990
2 67144  51.8739  52.4477 0003697 105.9563 254.1831 15.36050543  2682
KUIPER-00204            
1 67145U 25301N   25361.86245802  .00035463  00000+0  98276-3 0  9991
2 67145  51.8745  52.1015 0002321  79.7706 280.3542 15.36617781  2802
KUIPER-00210            
1 67146U 25301P   25361.94576965  .00025692  00000+0  77047-3 0  9994
2 67146  51.8611  51.9136 0010488 155.3638 204.7850 15.34261733  2873
KUIPER-00221            
1 67147U 25301Q   25361.93377346  .00045475  00000+0  12872-2 0  9991
2 67147  51.8725  51.8374 0005079 117.0580 243.0925 15.35833620  2706
KUIPER-00232            
1 67148U 25301R   25361.66606761  .00027107  00000+0  75095-3 0  9997
2 67148  51.8746  53.0409 0001803  54.0494 306.0660 15.36766488  2667
KUIPER-00241            
1 67149U 25301S   25361.53947069  .00036386  00000+0  10176-2 0  9990
2 67149  51.8747  53.6914 0002839  98.1454 261.9855 15.36319101  2976
KUIPER-00245            
1 67150U 25301T   25361.93447756  .00035898  00000+0  10231-2 0  9993
2 67150  51.8733  51.8409 0005086 124.9012 235.2453 15.35728223  2704
KUIPER-00246            
1 67151U 25301U   25361.80192394  .00047301  00000+0  13307-2 0  9994
2 67151  51.8743  52.4506 0004025 122.1780 237.9597 15.36011660  2704
KUIPER-00247            
1 67152U 25301V   25361.88198893  .00033566  00000+0  10076-2 0  9991
2 67152  51.8640  52.2370 0011112 158.5062 201.6391 15.34081031  2694
KUIPER-00248            
1 67153U 25301W   25361.94203910  .00026138  00000+0  77165-3 0  9996
2 67153  51.8686  51.8921 0008714 146.7983 213.3551 15.34762686  2877
KUIPER-00249            
1 67154U 25301X   25361.94054603  .00026199  00000+0  77046-3 0  9995
2 67154  51.8662  51.8822 0008118 143.9192 216.2343 15.34888387  2701
KUIPER-00250            
1 67155U 25301Y   25361.93681993  .00038077  00000+0  10938-2 0  9997
2 67155  51.8720  51.8574 0006240 132.9475 227.2035 15.35445895  2734
KUIPER-00251            
1 67156U 25301Z   25361.94134941  .00026722  00000+0  78614-3 0  9995
2 67156  51.8674  51.8876 0008775 142.0690 218.0916 15.34859452  2894
